{
    "links": {
        "self": "http://www.neowsapp.com/rest/v1/neo/3843425?api_key=iIulBulltgU6a56xZRHN4H3l9WmuAYTsLGpBGhQ2"
    },
    "id": "3843425",
    "neo_reference_id": "3843425",
    "name": "(2019 OT3)",
    "designation": "2019 OT3",
    "nasa_jpl_url": "http://ssd.jpl.nasa.gov/sbdb.cgi?sstr=3843425",
    "absolute_magnitude_h": 22.7,
    "estimated_diameter": {
        "kilometers": {
            "estimated_diameter_min": 0.0766575574,
            "estimated_diameter_max": 0.1714115092
        },
        "meters": {
            "estimated_diameter_min": 76.6575573531,
            "estimated_diameter_max": 171.4115092306
        },
        "miles": {
            "estimated_diameter_min": 0.0476327831,
            "estimated_diameter_max": 0.1065101409
        },
        "feet": {
            "estimated_diameter_min": 251.5011804664,
            "estimated_diameter_max": 562.3737359442
        }
    },
    "is_potentially_hazardous_asteroid": false,
    "close_approach_data": [
        {
            "close_approach_date": "2019-07-29",
            "close_approach_date_full": "2019-Jul-29 06:16",
            "epoch_date_close_approach": 1564380960000,
            "relative_velocity": {
                "kilometers_per_second": "5.4251141547",
                "kilometers_per_hour": "19530.4109569568",
                "miles_per_hour": "12135.4378526713"
            },
            "miss_distance": {
                "astronomical": "0.23728955",
                "lunar": "92.30563495",
                "kilometers": "35498011.2532585",
                "miles": "22057441.3756273"
            },
            "orbiting_body": "Earth"
        }
    ],
    "orbital_data": {
        "orbit_id": "3",
        "orbit_determination_date": "2019-08-23 06:08:14",
        "first_observation_date": "2019-07-25",
        "last_observation_date": "2019-08-21",
        "data_arc_in_days": 27,
        "observations_used": 24,
        "orbit_uncertainty": "7",
        "minimum_orbit_intersection": ".226533",
        "jupiter_tisserand_invariant": "3.538",
        "epoch_osculation": "2459000.5",
        "eccentricity": ".4336888792959588",
        "semi_major_axis": "2.180297004747321",
        "inclination": "9.133527900817667",
        "ascending_node_longitude": "320.2843914486121",
        "orbital_period": "1175.904125720048",
        "perihelion_distance": "1.23472644022612",
        "perihelion_argument": "338.7986578901593",
        "aphelion_distance": "3.125867569268522",
        "perihelion_time": "2458682.278420533284",
        "mean_anomaly": "97.42271168397212",
        "mean_motion": ".3061474078760962",
        "equinox": "J2000",
        "orbit_class": {
            "orbit_class_type": "AMO",
            "orbit_class_description": "Near-Earth asteroid orbits similar to that of 1221 Amor",
            "orbit_class_range": "1.017 AU < q (perihelion) < 1.3 AU"
        }
    },
    "is_sentry_object": false
}